SAUDISAT 1C             
1 27607U 02058C   22293.17452430  .00001201  00000+0  18378-3 0  9994
2 27607  64.5536 280.1841 0081625 270.6934  88.4816 14.76337187 66992
SAUDISAT 2              
1 28371U 04025F   22293.06947070  .00000157  00000+0  47534-4 0  9992
2 28371  98.3937 250.1539 0026724  81.6891 278.7408 14.54624570971406
SAUDISAT 3              
1 31118U 07012B   22293.40247901  .00000274  00000+0  54352-4 0  9994
2 31118  97.9819 237.4986 0015672 153.2168 206.9850 14.69393910831507
PISAT                   
1 41784U 16059B   22293.35442315  .00000659  00000+0  13344-3 0  9997
2 41784  97.9029 331.7701 0032749 133.0517 227.3437 14.64056068323960
FLYING LAPTOP           
1 42831U 17042G   22293.34872309  .00001880  00000+0  19018-3 0  9994
2 42831  97.4090 140.4715 0012478 314.4732  45.5421 14.92032664286719
SALSAT                  
1 46495U 20068K   22292.58085169  .00003179  00000+0  22737-3 0  9996
2 46495  97.7399 234.0138 0015335 211.6795 148.3509 15.05103418112858
